IRIDIUM 126             
1 42809U 17039G   26011.16947889  .00000100  00000+0  28607-4 0  9992
2 42809  86.3941  59.2784 0002320  98.9788 261.1670 14.34217956447445
IRIDIUM 124             
1 42810U 17039H   26011.22604590  .00000432  00000+0  12230-3 0  9992
2 42810  86.4501 355.9768 0002511  87.7203 272.4285 14.43281315452474
IRIDIUM 128             
1 42811U 17039J   26011.16021717  .00000231  00000+0  75306-4 0  9991
2 42811  86.3955  90.8227 0002224  89.7813 270.3638 14.34218373447479
IRIDIUM 121             
1 42812U 17039K   26011.18850619  .00000094  00000+0  26582-4 0  9994
2 42812  86.3941  59.2970 0002143  91.5426 268.6016 14.34218250447328
IRIDIUM 133             
1 42955U 17061A   26011.19192601  .00000284  00000+0  94437-4 0  9993
2 42955  86.3959  90.9235 0002222  94.9997 265.1453 14.34220191432271
IRIDIUM 100             
1 42956U 17061B   26011.18558692  .00000180  00000+0  57083-4 0  9990
2 42956  86.3956  90.8484 0002214  96.5548 263.5900 14.34218273432272
IRIDIUM 122             
1 42957U 17061C   26011.29341132  .00000152  00000+0  47317-4 0  9990
2 42957  86.3958  90.8031 0002281  99.3781 260.7673 14.34218020432295
IRIDIUM 129             
1 42958U 17061D   26011.17924332  .00000099  00000+0  28334-4 0  9995
2 42958  86.3960  90.9164 0001799 104.9507 255.1888 14.34218416432294
